NAVSTAR 77 (USA 289)    
1 43873U 18109A   24209.73125192 -.00000020  00000+0  00000+0 0  9992
2 43873  55.3107 119.4259 0029585 193.8733 349.4817  2.00557687 41249
